[{"OBJECT_NAME":"AETHER-1","OBJECT_ID":"2023-174AB","EPOCH":"2026-03-09T17:17:51.429696","MEAN_MOTION":15.59029667,"ECCENTRICITY":0.00048301,"INCLINATION":97.3866,"RA_OF_ASC_NODE":157.5943,"ARG_OF_PERICENTER":156.7796,"MEAN_ANOMALY":203.368,"EPHEMERIS_TYPE":0,"CLASSIFICATION_TYPE":"U","NORAD_CAT_ID":58281,"ELEMENT_SET_NO":999,"REV_AT_EPOCH":13035,"BSTAR":0.0011500755,"MEAN_MOTION_DOT":0.00090327,"MEAN_MOTION_DDOT":0},{"OBJECT_NAME":"USA 61","OBJECT_ID":"1990-050C","EPOCH":"2026-03-09T12:11:25.917504","MEAN_MOTION":13.6196417,"ECCENTRICITY":0.0883009,"INCLINATION":63.2938,"RA_OF_ASC_NODE":120.5629,"ARG_OF_PERICENTER":83.2372,"MEAN_ANOMALY":286.8223,"EPHEMERIS_TYPE":0,"CLASSIFICATION_TYPE":"U","NORAD_CAT_ID":20691,"ELEMENT_SET_NO":999,"REV_AT_EPOCH":9272,"BSTAR":0.00024937203,"MEAN_MOTION_DOT":3.372e-5,"MEAN_MOTION_DDOT":0}]
